{
    "links": {
        "self": "http://www.neowsapp.com/rest/v1/neo/3560815?api_key=iIulBulltgU6a56xZRHN4H3l9WmuAYTsLGpBGhQ2"
    },
    "id": "3560815",
    "neo_reference_id": "3560815",
    "name": "(2011 FQ29)",
    "designation": "2011 FQ29",
    "nasa_jpl_url": "http://ssd.jpl.nasa.gov/sbdb.cgi?sstr=3560815",
    "absolute_magnitude_h": 25.3,
    "estimated_diameter": {
        "kilometers": {
            "estimated_diameter_min": 0.0231502122,
            "estimated_diameter_max": 0.0517654482
        },
        "meters": {
            "estimated_diameter_min": 23.150212221,
            "estimated_diameter_max": 51.7654482198
        },
        "miles": {
            "estimated_diameter_min": 0.0143848705,
            "estimated_diameter_max": 0.0321655483
        },
        "feet": {
            "estimated_diameter_min": 75.9521422633,
            "estimated_diameter_max": 169.8341531374
        }
    },
    "is_potentially_hazardous_asteroid": false,
    "close_approach_data": [
        {
            "close_approach_date": "2008-04-05",
            "close_approach_date_full": "2008-Apr-05 16:05",
            "epoch_date_close_approach": 1207411500000,
            "relative_velocity": {
                "kilometers_per_second": "16.3571995809",
                "kilometers_per_hour": "58885.9184911338",
                "miles_per_hour": "36589.4197424492"
            },
            "miss_distance": {
                "astronomical": "0.4477834725",
                "lunar": "174.1877708025",
                "kilometers": "66987453.707203575",
                "miles": "41624073.599716335"
            },
            "orbiting_body": "Earth"
        },
        {
            "close_approach_date": "2011-05-08",
            "close_approach_date_full": "2011-May-08 18:03",
            "epoch_date_close_approach": 1304877780000,
            "relative_velocity": {
                "kilometers_per_second": "3.7710850906",
                "kilometers_per_hour": "13575.9063260894",
                "miles_per_hour": "8435.5402391193"
            },
            "miss_distance": {
                "astronomical": "0.054036137",
                "lunar": "21.020057293",
                "kilometers": "8083690.99822819",
                "miles": "5022972.667961422"
            },
            "orbiting_body": "Earth"
        },
        {
            "close_approach_date": "2014-07-19",
            "close_approach_date_full": "2014-Jul-19 08:47",
            "epoch_date_close_approach": 1405759620000,
            "relative_velocity": {
                "kilometers_per_second": "13.6819285643",
                "kilometers_per_hour": "49254.9428314505",
                "miles_per_hour": "30605.1060054643"
            },
            "miss_distance": {
                "astronomical": "0.3649612051",
                "lunar": "141.9699087839",
                "kilometers": "54597418.915593137",
                "miles": "33925262.9788018106"
            },
            "orbiting_body": "Earth"
        }
    ],
    "orbital_data": {
        "orbit_id": "10",
        "orbit_determination_date": "2017-04-06 08:53:57",
        "first_observation_date": "2011-03-30",
        "last_observation_date": "2011-04-24",
        "data_arc_in_days": 25,
        "observations_used": 26,
        "orbit_uncertainty": "7",
        "minimum_orbit_intersection": ".0538904",
        "jupiter_tisserand_invariant": "4.896",
        "epoch_osculation": "2459000.5",
        "eccentricity": ".2226926217993541",
        "semi_major_axis": "1.329886439214203",
        "inclination": "3.525352500776769",
        "ascending_node_longitude": "5.075490413671305",
        "orbital_period": "560.1705376287327",
        "perihelion_distance": "1.033730541370185",
        "perihelion_argument": "240.0794054327237",
        "aphelion_distance": "1.626042337058222",
        "perihelion_time": "2459067.525636559533",
        "mean_anomaly": "316.9252084131846",
        "mean_motion": ".6426614322201272",
        "equinox": "J2000",
        "orbit_class": {
            "orbit_class_type": "AMO",
            "orbit_class_description": "Near-Earth asteroid orbits similar to that of 1221 Amor",
            "orbit_class_range": "1.017 AU < q (perihelion) < 1.3 AU"
        }
    },
    "is_sentry_object": false
}